[
    {
        "Altitude(m)": 610399.5054469587,
        "Argument of Periapsis(deg)": 0.0,
        "Eccentricity": 0.0,
        "Inclination(deg)": 60.0,
        "Latitude(deg)": 52.111270413405016,
        "Longitude(deg)": -112.41564273673096,
        "Mean Anomaly(deg)": -294.5455,
        "RAAN(deg)": 300.0,
        "Satellite Name": "Test1 1324",
        "Satellite Number": 1324,
        "Semi-Major Axis(m)": 6980739.136638005,
        "Time(s)": 0
    },
    {
        "Altitude(m)": 610481.6564126473,
        "Argument of Periapsis(deg)": 0.00010418945913296404,
        "Eccentricity": 0.0,
        "Inclination(deg)": 60.0,
        "Latitude(deg)": 52.47087212904762,
        "Longitude(deg)": -111.6335069915834,
        "Mean Anomaly(deg)": -293.9253938545382,
        "RAAN(deg)": 299.99957995086027,
        "Satellite Name": "Test1 1324",
        "Satellite Number": 1324,
        "Semi-Major Axis(m)": 6980739.136638005,
        "Time(s)": 10
    }
]